SOYUZ-MS 28             
1 66664U 25275A   25361.43744713  .00013440  00000+0  24415-3 0  9999
2 66664  51.6320  69.6861 0003234 310.1185  49.9520 15.49871717545131
1998-067XS              
1 66906U 98067XS  25361.48455582  .00028453  00000+0  48079-3 0  9997
2 66906  51.6319  69.2523 0002659 278.8538  81.2150 15.51372826  3903
1998-067XT              
1 66907U 98067XT  25361.40427347  .00068170  00000+0  10591-2 0  9995
2 66907  51.6320  69.4664 0003783 315.9002  44.1686 15.53307188  3893
1998-067XU              
1 66908U 98067XU  25361.46743922  .00059503  00000+0  92502-3 0  9995
2 66908  51.6324  69.1374 0004039 312.9995  47.0657 15.53347401  3900
SILVERSAT               
1 66909U 98067XV  25361.46540558  .00076025  00000+0  11635-2 0  9991
2 66909  51.6313  69.1235 0003945 319.4612  40.6084 15.53674289  3908
1998-067XW              
1 66910U 98067XW  25361.46389604  .00068686  00000+0  10574-2 0  9991
2 66910  51.6304  69.1129 0003698 290.9058  69.1536 15.53557016  3900
1998-067XX              
1 66911U 98067XX  25361.39493672  .00082680  00000+0  12426-2 0  9993
2 66911  51.6308  69.4034 0003462 299.6786  60.3859 15.54137727  3888
1998-067XY              
1 66912U 98067XY  25361.21690567  .00054785  00000+0  87690-3 0  9998
2 66912  51.6314  70.4653 0003872 305.7746  54.2884 15.52574078  3854
