CCSDS_OMM_VERS = 2.0
CREATION_DATE  = 
ORIGINATOR     = 

OBJECT_NAME    = SOYUZ-MS 28
OBJECT_ID      = 2025-275A
CENTER_NAME    = EARTH
REF_FRAME      = TEME
TIME_SYSTEM    = UTC
MEAN_ELEMENT_THEORY = SGP/SGP4

EPOCH          = 2025-12-27T10:29:55.432032
MEAN_MOTION    = 15.49871717
ECCENTRICITY   = .0003234
INCLINATION    = 51.6320
RA_OF_ASC_NODE = 69.6861
ARG_OF_PERICENTER = 310.1185
MEAN_ANOMALY   = 49.9520

EPHEMERIS_TYPE = 0
CLASSIFICATION_TYPE = U
NORAD_CAT_ID   = 66664
ELEMENT_SET_NO = 999
REV_AT_EPOCH   = 54513
BSTAR          = .24415E-3
MEAN_MOTION_DOT = .1344E-3
MEAN_MOTION_DDOT = 0

CCSDS_OMM_VERS = 2.0
CREATION_DATE  = 
ORIGINATOR     = 

OBJECT_NAME    = 1998-067XS
OBJECT_ID      = 1998-067XS
CENTER_NAME    = EARTH
REF_FRAME      = TEME
TIME_SYSTEM    = UTC
MEAN_ELEMENT_THEORY = SGP/SGP4

EPOCH          = 2025-12-27T11:37:45.622848
MEAN_MOTION    = 15.51372826
ECCENTRICITY   = .0002659
INCLINATION    = 51.6319
RA_OF_ASC_NODE = 69.2523
ARG_OF_PERICENTER = 278.8538
MEAN_ANOMALY   = 81.2150

EPHEMERIS_TYPE = 0
CLASSIFICATION_TYPE = U
NORAD_CAT_ID   = 66906
ELEMENT_SET_NO = 999
REV_AT_EPOCH   = 390
BSTAR          = .48079E-3
MEAN_MOTION_DOT = .28453E-3
MEAN_MOTION_DDOT = 0

CCSDS_OMM_VERS = 2.0
CREATION_DATE  = 
ORIGINATOR     = 

OBJECT_NAME    = 1998-067XT
OBJECT_ID      = 1998-067XT
CENTER_NAME    = EARTH
REF_FRAME      = TEME
TIME_SYSTEM    = UTC
MEAN_ELEMENT_THEORY = SGP/SGP4

EPOCH          = 2025-12-27T09:42:09.227808
MEAN_MOTION    = 15.53307188
ECCENTRICITY   = .0003783
INCLINATION    = 51.6320
RA_OF_ASC_NODE = 69.4664
ARG_OF_PERICENTER = 315.9002
MEAN_ANOMALY   = 44.1686

EPHEMERIS_TYPE = 0
CLASSIFICATION_TYPE = U
NORAD_CAT_ID   = 66907
ELEMENT_SET_NO = 999
REV_AT_EPOCH   = 389
BSTAR          = .10591E-2
MEAN_MOTION_DOT = .6817E-3
MEAN_MOTION_DDOT = 0

CCSDS_OMM_VERS = 2.0
CREATION_DATE  = 
ORIGINATOR     = 

OBJECT_NAME    = 1998-067XU
OBJECT_ID      = 1998-067XU
CENTER_NAME    = EARTH
REF_FRAME      = TEME
TIME_SYSTEM    = UTC
MEAN_ELEMENT_THEORY = SGP/SGP4

EPOCH          = 2025-12-27T11:13:06.748608
MEAN_MOTION    = 15.53347401
ECCENTRICITY   = .0004039
INCLINATION    = 51.6324
RA_OF_ASC_NODE = 69.1374
ARG_OF_PERICENTER = 312.9995
MEAN_ANOMALY   = 47.0657

EPHEMERIS_TYPE = 0
CLASSIFICATION_TYPE = U
NORAD_CAT_ID   = 66908
ELEMENT_SET_NO = 999
REV_AT_EPOCH   = 390
BSTAR          = .92502E-3
MEAN_MOTION_DOT = .59503E-3
MEAN_MOTION_DDOT = 0

CCSDS_OMM_VERS = 2.0
CREATION_DATE  = 
ORIGINATOR     = 

OBJECT_NAME    = SILVERSAT
OBJECT_ID      = 1998-067XV
CENTER_NAME    = EARTH
REF_FRAME      = TEME
TIME_SYSTEM    = UTC
MEAN_ELEMENT_THEORY = SGP/SGP4

EPOCH          = 2025-12-27T11:10:11.042112
MEAN_MOTION    = 15.53674289
ECCENTRICITY   = .0003945
INCLINATION    = 51.6313
RA_OF_ASC_NODE = 69.1235
ARG_OF_PERICENTER = 319.4612
MEAN_ANOMALY   = 40.6084

EPHEMERIS_TYPE = 0
CLASSIFICATION_TYPE = U
NORAD_CAT_ID   = 66909
ELEMENT_SET_NO = 999
REV_AT_EPOCH   = 390
BSTAR          = .11635E-2
MEAN_MOTION_DOT = .76025E-3
MEAN_MOTION_DDOT = 0

CCSDS_OMM_VERS = 2.0
CREATION_DATE  = 
ORIGINATOR     = 

OBJECT_NAME    = 1998-067XW
OBJECT_ID      = 1998-067XW
CENTER_NAME    = EARTH
REF_FRAME      = TEME
TIME_SYSTEM    = UTC
MEAN_ELEMENT_THEORY = SGP/SGP4

EPOCH          = 2025-12-27T11:08:00.617856
MEAN_MOTION    = 15.53557016
ECCENTRICITY   = .0003698
INCLINATION    = 51.6304
RA_OF_ASC_NODE = 69.1129
ARG_OF_PERICENTER = 290.9058
MEAN_ANOMALY   = 69.1536

EPHEMERIS_TYPE = 0
CLASSIFICATION_TYPE = U
NORAD_CAT_ID   = 66910
ELEMENT_SET_NO = 999
REV_AT_EPOCH   = 390
BSTAR          = .10574E-2
MEAN_MOTION_DOT = .68686E-3
MEAN_MOTION_DDOT = 0

CCSDS_OMM_VERS = 2.0
CREATION_DATE  = 
ORIGINATOR     = 

OBJECT_NAME    = 1998-067XX
OBJECT_ID      = 1998-067XX
CENTER_NAME    = EARTH
REF_FRAME      = TEME
TIME_SYSTEM    = UTC
MEAN_ELEMENT_THEORY = SGP/SGP4

EPOCH          = 2025-12-27T09:28:42.532608
MEAN_MOTION    = 15.54137727
ECCENTRICITY   = .0003462
INCLINATION    = 51.6308
RA_OF_ASC_NODE = 69.4034
ARG_OF_PERICENTER = 299.6786
MEAN_ANOMALY   = 60.3859

EPHEMERIS_TYPE = 0
CLASSIFICATION_TYPE = U
NORAD_CAT_ID   = 66911
ELEMENT_SET_NO = 999
REV_AT_EPOCH   = 388
BSTAR          = .12426E-2
MEAN_MOTION_DOT = .8268E-3
MEAN_MOTION_DDOT = 0

CCSDS_OMM_VERS = 2.0
CREATION_DATE  = 
ORIGINATOR     = 

OBJECT_NAME    = 1998-067XY
OBJECT_ID      = 1998-067XY
CENTER_NAME    = EARTH
REF_FRAME      = TEME
TIME_SYSTEM    = UTC
MEAN_ELEMENT_THEORY = SGP/SGP4

EPOCH          = 2025-12-27T05:12:20.649888
MEAN_MOTION    = 15.52574078
ECCENTRICITY   = .0003872
INCLINATION    = 51.6314
RA_OF_ASC_NODE = 70.4653
ARG_OF_PERICENTER = 305.7746
MEAN_ANOMALY   = 54.2884

EPHEMERIS_TYPE = 0
CLASSIFICATION_TYPE = U
NORAD_CAT_ID   = 66912
ELEMENT_SET_NO = 999
REV_AT_EPOCH   = 385
BSTAR          = .8769E-3
MEAN_MOTION_DOT = .54785E-3
MEAN_MOTION_DDOT = 0

